JCAT , SatcatLaunch_Tag Piece     , Type     , Name                        , PLName                      , LDate      , Parent      , SDate              , Primary, DDate              , Status Dest   , Owner       , State , Manufacturer, Bus              , Motor       , Mass     , DryMass   , TotMass  , Length, Diamete, Span   , Shape                    , ODate      , Perigee, Apogee, Inc   , OpOrbitOQU AltNames, STATUS, OBJECT_NAME             , OBJECT_ID , EPOCH                     , MEAN_MOTION, ECCENTRICITY, INCLINATION, RA_OF_ASC_NODE, ARG_OF_PERICENTER, MEAN_ANOMALY, EPHEMERIS_TYPE, CLASSIFICATION_TYPE, NORAD_CAT_ID, ELEMENT_SET_NO, REV_AT_EPOCH, BSTAR         , MEAN_MOTION_DOT, MEAN_MOTION_DDOT, LAST_UPDATED       , DATA_SOURCE               , TLE_LINE1                                                            , TLE_LINE2                                                            , N2YO_SAT_NAME              , TLE_FETCHED
21805, 21805 1991-080   1991-080B , P ---S- c, DSP F16                     , DSP 16                      , 1991 Nov 24, S21807      , 1991 Nov 25 1239   , Earth  , -                  , O      GEO/S? , AFSSD2      , US    , TRW         , DSP B14          , MRE-4       , 2360     , 2200    ? , 2360     , 10.0  , 3.3    , 11.5   , Cyl + 4 Pan              , 2000 Feb 29, 35766  , 35807 , 3.97  , GEO/I  -   USA 75:U, ACTIVE, USA 75 (DSP 16)         , 1991-080B , 2025-10-03T06:29:56.833152,  0.99185746, 0.0003594   ,     14.1437,       347.3276,          141.2487,     272.4353,            0.0, U                  ,      21805.0,          999.0,       2316.0, 0.0           , -1.63e-06      , 0.0             , 2025-10-04 23:19:22, planet4589.org + Celestrak, 1 21805U 91080B   25276.27079668 -.00000163  00000-0  00000-0 0  9992, 2 21805  14.1437 347.3276 0003594 141.2487 272.4353  0.99185746 23165, USA 75                     , YES
22314, 22314 1993-003   1993-003B , P ---S-  , TDRS-6                      , TDRS F                      , 1993 Jan 13, S22316      , 1993 Jan 13 0306?  , Earth  , -                  , O      -      , GSFC        , US    , TRW         , TDRS             , AOCS        , 2534     , 1673    ? , 2534     , 1.3   , 2.4    , 17.4   , Box + Dish + 2 Pan       , 1993 Feb 15, 35778  , 35794 , 0.07  , GEO/S  -           , ACTIVE, TDRS 6                  , 1993-003B , 2025-10-03T01:41:59.985024,  1.00263475, 0.00113479  ,     14.1776,       358.9503,          195.9682,     156.4558,            0.0, U                  ,      22314.0,          999.0,      11982.0, 0.0           , -2.89e-06      , 0.0             , 2025-10-04 23:19:22, planet4589.org + Celestrak, 1 22314U 93003B   25276.07083316 -.00000289  00000-0  00000-0 0  9997, 2 22314  14.1776 358.9503 0011348 195.9682 156.4558  1.00263475119823, TDRS 6                     , YES
22490, 22490 1993-009   1993-009B , P        , SCD-1                       , SCD-1                       , 1993 Feb  9, S22491      , 1993 Feb  9 1442   , Earth  , -                  , O      -      , INPE        , BR    , INPE        , SCD              , -           , 115      , 115       , 115      , 0.7   , 1.0    , 1.0    , Oct Cyl                  , 1993 Mar 12, 724    , 789   , 24.97 , LEO/E  -           , ACTIVE, SCD 1                   , 1993-009B , 2025-10-03T15:47:41.430624, 14.45933619, 0.00418313  ,     24.971 ,       351.2896,          303.4833,     215.3319,            0.0, U                  ,      22490.0,          999.0,      72394.0, 0.00022151641 , 9.95e-06       , 0.0             , 2025-10-04 23:19:22, planet4589.org + Celestrak, 1 22490U 93009B   25277.53144840  .00000859  00000-0  18426-3 0  9996, 2 22490  24.9710 345.8992 0041849 312.7663  81.2888 14.45934322724078, SCD 1                      , YES
22787, 22787 1993-056   1993-056A , P        , UHF F/O F2                  , UFO F2                      , 1993 Sep  3, S22788      , 1993 Sep  3 1145?  , Earth  , -                  , O      -      , HCI         , US    , HSES        , HS-601           , R-4D-11     , 2840     , 1000    ? , 2840     , 4.0  ?, 3.0  ? , 18.3   , Box + 2 Pan              , 1993 Oct  7, 35129  , 36444 , 5.09  , GEO/I  -   USA 95:C, ACTIVE, UFO 2 (USA 95)          , 1993-056A , 2025-10-02T20:51:38.774592,  1.00276084, 0.0004757   ,     11.8066,         4.9282,          234.2419,     114.2808,            0.0, U                  ,      22787.0,          999.0,      11596.0, 0.0           , 1.32e-06       , 0.0             , 2025-10-04 23:19:22, planet4589.org + Celestrak, 1 22787U 93056A   25275.86919878  .00000132  00000-0  00000-0 0  9992, 2 22787  11.8066   4.9282 0004757 234.2419 114.2808  1.00276084115967, UFO 2 (USA 95)             , YES
22824, 22824 1993-061   1993-061B , P        , Stella                      , Stella                      , 1993 Sep 26, S22830      , 1993 Sep 26 0205   , Earth  , -                  , O      -      , CNES        , F     , CNES        , Starlette        , -           , 48       , 48        , 48       , 0.2   , 0.2    , 0.2    , Sphere                   , 1993 Oct 28, 797    , 805   , 98.68 , LEO/S  -           , ACTIVE, STELLA                  , 1993-061B , 2025-10-03T16:02:19.730688, 14.27460221, 0.00052945  ,     98.8119,       334.5048,          262.1505,     261.5505,            0.0, U                  ,      22824.0,          999.0,      66817.0, 1.6372952e-05 , -5e-08         , 0.0             , 2025-10-04 23:19:22, planet4589.org + Celestrak, 1 22824U 93061B   25277.50043417 -.00000000  00000-0  18439-4 0  9994, 2 22824  98.8118 335.3435 0005301 259.2308 218.3519 14.27460275668297, STELLA                     , YES
22825, 22825 1993-061   1993-061C , P        , AMRAD-OSCAR-27              , Eyesat 1                    , 1993 Sep 26, A05382      , 1993 Sep 26 0209   , Earth  , -                  , O      -      , INFER       , US    , INFER       , Microsat         , -           , 12       , 12        , 12       , 0.3   , 0.3    , 0.3    , Cube                     , 1993 Nov  1, 793    , 806   , 98.68 , LEO/S  -   AO-27   , ACTIVE, EYESAT A (AO-27)        , 1993-061C , 2025-10-03T10:35:34.090656, 14.30839413, 0.00092825  ,     98.7247,       338.5076,          129.2243,     230.9765,            0.0, U                  ,      22825.0,          999.0,      67028.0, 0.00015773362 , 3.69e-06       , 0.0             , 2025-10-04 23:19:22, planet4589.org + Celestrak, 1 22825U 93061C   25276.44136679  .00000369  00000-0  15773-3 0  9994, 2 22825  98.7247 338.5076 0009283 129.2243 230.9765 14.30839413670286, EYESAT-1                   , YES
22826, 22826 1993-061   1993-061D , P        , Healthsat 2                 , Healthsat 2                 , 1993 Sep 26, A05382      , 1993 Sep 26 0208   , Earth  , 1999               , N      -      , SATEL       , US    , SSTL        , UoSAT            , -           , 50       , 50        , 50       , 0.6  ?, 0.4    , 6.5  ? , Box + Ant                , 1993 Nov  1, 792    , 805   , 98.68 , LEO/S  -           , ACTIVE, ITAMSAT (IO-26)         , 1993-061D , 2025-10-03T15:16:20.989056, 14.31256975, 0.00099741  ,     98.7194,       338.5961,          114.5013,     245.721 ,            0.0, U                  ,      22826.0,          999.0,      67061.0, 0.00016974671 , 4.04e-06       , 0.0             , 2025-10-04 23:19:22, planet4589.org + Celestrak, 1 22826U 93061D   25276.63635404  .00000404  00000-0  16975-3 0  9991, 2 22826  98.7194 338.5961 0009974 114.5013 245.7210 14.31256975670613, ITAMSAT                    , YES
22988, 22988 1994-009   1994-009A , P ------c, Milstar 1                   , Milstar DFS-1               , 1994 Feb  7, S22989      , 1994 Feb  8 0421   , Earth  , -                  , O      GEO/S? , AFSMC       , US    , LMSC        , Milstar          , -           , 4500     , 4100    ? , 4500     , 15.5  , 4.0  ? , 35.0   , Truss + 2 Dish + 2 Pan   , 1999 Mar  9, 35777  , 35796 , 0.01  , GEO/S  -   USA 99  , ACTIVE, USA 99 (MILSTAR-1 1)    , 1994-009A , 2025-10-01T20:06:45.860256,  1.00270385, 0.0002218   ,     17.232 ,        30.4724,          195.0208,     356.9973,            0.0, U                  ,      22988.0,          999.0,       3036.0, 0.0           , -1.89e-06      , 0.0             , 2025-10-04 23:19:22, planet4589.org + Celestrak, 1 22988U 94009A   25274.83803079 -.00000189  00000-0  00000+0 0  9997, 2 22988  17.2320  30.4724 0002218 195.0208 356.9973  1.00270385 30364, USA 99                     , YES
23439, 23439 1994-085   1994-085A , P        , Radio-ROSTO                 , RS-15                       , 1994 Dec 26, S23440      , 1994 Dec 26 0410?  , Earth  , -                  , O      -      , NPOPMR      , RU    , NPOPMR      , Strela-1M        , -           , 70       , 70        , 70       , 0.8   , 0.8    , 0.8    , Poly                     , 1995 Jan 25, 1881   , 2163  , 64.82 , MEO    -           , ACTIVE, RADIO ROSTO (RS-15)     , 1994-085A , 2025-10-03T15:02:54.064896, 11.27581391, 0.01476319  ,     64.8219,       358.1384,           52.0094,     309.4058,            0.0, U                  ,      23439.0,          999.0,      26697.0, -2.4381313e-05, -4.3e-07       , 0.0             , 2025-10-04 23:19:22, planet4589.org + Celestrak, 1 23439U 94085A   25277.51390777 -.00000043  00000-0 -10422-4 0  9991, 2 23439  64.8219 356.7043 0147647  51.8363 309.5759 11.27581379267070, RADIO ROSTO                , YES
